STARLINK-1290_new
1 15392C 20019AJ  21326.14842917  .00000618  00000-0  39308-4 0  3261
2 15392  52.9945 344.3377 0001661  84.0393  18.7040 15.08301525    12
STARLINK-1290_old
1 25392C 20019AJ  21325.11980205  .00001144  00000-0  72795-4 0  3251
2 25392  52.9940 348.9757 0001642  85.7566 188.5840 15.08288701    12
